#aV2021  2 15  0  0  0.00000000     288 DD+AD WGS84 FIT  NGA
## 2145  86400.00000000   300.00000000 59260 0.0000000000000
+   32     1  2  3  4  5  6  7  8  9 10 11 12 13 14 15 16 17
+         18 19 20 21 22 23 24 25 26 27 28 29 30 31 32  0  0
+          0  0  0  0  0  0  0  0  0  0  0  0  0  0  0  0  0
+          0  0  0  0  0  0  0  0  0  0  0  0  0  0  0  0  0
+          0  0  0  0  0  0  0  0  0  0  0  0  0  0  0  0  0
++         2  2  2  2  2  2  2  2  2  2  2  2  2  2  2  2  2
++         2  2  2  2  2  2  2  2  2  2  2  2  2  2  2  0  0
++         0  0  0  0  0  0  0  0  0  0  0  0  0  0  0  0  0
++         0  0  0  0  0  0  0  0  0  0  0  0  0  0  0  0  0
++         0  0  0  0  0  0  0  0  0  0  0  0  0  0  0  0  0
%c cc cc ccc ccc cccc cccc cccc cccc ccccc ccccc ccccc ccccc
%c cc cc ccc ccc cccc cccc cccc cccc ccccc ccccc ccccc ccccc
%f  0.0000000  0.000000000  0.00000000000  0.000000000000000
%f  0.0000000  0.000000000  0.00000000000  0.000000000000000
%i    0    0    0    0      0      0      0      0         0
%i    0    0    0    0      0      0      0      0         0
/*      NGA, ST. LOUIS,MO.                                  
/*   EPHEMERIS COMPUTED FROM 2 DAYS OF DATA                 
/*   EPOCHA v5 SMOOTHER                                     
/*   G2139 IERS2010 SATAF SATAPC                            
*  2021  2 15  4  5  0.00000000
P  1  20715.513132  14451.454202  -9000.221181    760.936342                    
V  1 -10802.879626  -2451.472654 -29271.997384     -0.077150                    
P  2    862.680059 -15761.420169  22020.285511   -576.980675                    
V  2  25416.213610   7169.361356   4290.388629     -0.039320                    
P  3  12829.176010  18535.040118  14049.996623    -83.358626                    
V  3    993.879095  17995.379451 -24406.863255     -0.101303                    
P  4  12213.476859   9616.686312  21544.795194   -180.302217                    
V  4 -21474.426842  16928.450901   4565.720544     -0.026282                    
P  5  -3295.669989 -26101.870917   2690.750973    -33.729237                    
V  5   3791.360788   2931.096098  31505.291131     -0.010258                    
P  6  14923.963154  -8783.544512  20219.677290     -2.779154                    
V  6  23520.806667   9766.772367 -13108.176063      0.011324                    
P  7  25575.939380   6208.776735  -4833.163360     59.154823                    
V  7   5078.564678   4827.369514  30446.864936      0.133764                    
P  8   5667.864725  14533.932340 -21448.594690    -10.371243                    
V  8 -21204.714656  17164.739719   6317.083168     -0.014241                    
P  9  20441.809241  -1683.063797  16823.666443   -322.997197                    
V  9 -15146.402690  15371.082513  19845.553907     -0.035454                    
P 10 -12581.621540  10734.062004 -20612.315862    -61.749675                    
V 10  -5330.047280 -25942.844128 -10461.866112     -0.081716                    
P 11  14760.184438  12537.660694 -18485.644858    -24.282040                    
V 11 -22423.808383   4975.174704 -15263.768118      0.106202                    
P 12  -9331.018470 -22424.077203  10677.614079     -1.282638                    
V 12    748.985702 -13985.142870 -27916.598788     -0.052796                    
P 13   5721.479627 -18417.234902 -18344.046635     97.363081                    
V 13  20328.891016 -10942.028839  17574.731011      0.043185                    
P 14  13760.969317  -8862.144656 -20926.645916     96.913669                    
V 14   3885.597106  26284.115918  -8588.749269      0.025868                    
P 15  -8143.390055 -14300.072693 -21158.137244   -169.326093                    
V 15  18846.497655 -18261.443674   5536.291100      0.025841                    
P 16   -869.399445  25939.625143   4061.214330   -280.309381                    
V 16  -3142.308401  -5301.151320  31815.253962     -0.056769                    
P 17  22186.961748 -14374.071906  -2081.983489    394.393716                    
V 17  -1309.710615   3589.130417 -32103.601505      0.065396                    
P 18 -24962.835855  -3866.777520  -8305.982545    347.332935                    
V 18  -8864.200095  -6147.428296  29459.461504      0.017617                    
P 19  19685.663646 -16954.755402   4994.507150    -38.330901                    
V 19   6821.781003  -1831.057171 -31427.331538      0.050119                    
P 20 -16640.558622  -2234.785794 -20684.748632    524.689259                    
V 20  -7087.220566 -25213.890385   8176.268310     -0.001767                    
P 21  15571.243270  15381.825798 -14610.105188     95.682673                    
V 21 -19477.528402  -3567.095033 -22932.145898      0.031928                    
P 22  10839.633314  23645.275862   5998.093428   -679.015187                    
V 22  -1361.373652   7972.928544 -29791.674007      0.074637                    
P 23 -15502.950442  -1299.249019 -21552.922532    118.368664                    
V 23  -4708.987938 -26896.950578   4974.525763      0.002092                    
P 24 -17475.019636 -15484.329728 -13255.841547      2.315595                    
V 24  16387.758192   2311.213801 -24362.247639     -0.004604                    
P 25 -15262.553995  -9503.254980  19383.857882     80.743361                    
V 25  -2944.883133 -24931.375560 -14079.543304      0.076593                    
P 26  -6075.170906  21449.426085  14185.824997     45.077819                    
V 26  -6370.768608 -17319.384237  23637.481864      0.055125                    
P 27  -7292.923308  19901.130483 -15929.201913    -76.551939                    
V 27 -16624.797998  11348.622576  22363.376007     -0.074239                    
P 28  12486.927926 -12107.975986 -19569.537483    615.375818                    
V 28   2856.753451  25857.461352 -13604.020213     -0.054216                    
P 29 -20197.439651    271.009184  17227.676022   -295.180394                    
V 29  17136.073076 -13668.767861  20218.679598     -0.070280                    
P 30  21576.183324  -3284.756981 -15242.769477   -384.923550                    
V 30  17071.001756   9548.083803  21814.617723     -0.057555                    
P 31 -13061.551586  10436.523687  20657.701224   -100.160951                    
V 31 -24122.383608 -10554.919820  -9423.746182     -0.023051                    
P 32 -21022.487450  15986.401460  -1642.793938     18.775674                    
V 32   -260.826174  -3773.622587 -31702.492170      0.013164                    
EOF
